STARLINK-31853          
1 59933U 24106M   26068.10787732 -.00003161  00000+0 -10546-3 0  9990
2 59933  43.0016 335.8243 0000423 271.3812  88.6991 15.27569782100437
LIME                    
1 62648U 25009AR  26068.73906781  .00013254  00000+0  47723-3 0  9995
2 62648  97.3985 151.4831 0001635  35.9029 324.2320 15.28703313 63766
